
G21 G64P0.25 G40 G49 G80 G90 G92.1 G94 G97 (preamble)

(conversational rectangle)
;using material #1: 1.6mm galv steel
M190 P1
M66 P3 L3 Q1
f#<_hal[plasmac.cut-feed-rate]>
g0 x748.828427 y748.828427
m3 $0 s1
g3 x746.000000 y746.000000 i0.000000 j-2.828427
g1 x746.000000 y5.000000
g1 x5.000000 y5.000000
g1 x5.000000 y746.000000
g1 x746.000000 y746.000000
g1 x746.000000 y746.000000
g2 x748.828427 y743.171573 i0.000000 j-2.828427
g40
m5 $0

G21 G64P0.25 G40 G49 G80 G90 G92.1 G94 G97 (postamble)
m2
